CCSDS_OMM_VERS = 2.0
CREATION_DATE  = 
ORIGINATOR     = 

OBJECT_NAME    = UNKNOWN
OBJECT_ID      = 
CENTER_NAME    = EARTH
REF_FRAME      = TEME
TIME_SYSTEM    = UTC
MEAN_ELEMENT_THEORY = SGP/SGP4

EPOCH          = 2026-01-04T00:56:27.013056
MEAN_MOTION    = 13.04020863
ECCENTRICITY   = .014782
INCLINATION    = 100.4669
RA_OF_ASC_NODE = 305.0357
ARG_OF_PERICENTER = 58.1774
MEAN_ANOMALY   = 303.3629

EPHEMERIS_TYPE = 0
CLASSIFICATION_TYPE = U
NORAD_CAT_ID   = 89101
ELEMENT_SET_NO = 999
REV_AT_EPOCH   = 55775
BSTAR          = .14266E-2
MEAN_MOTION_DOT = .437E-5
MEAN_MOTION_DDOT = 0

CCSDS_OMM_VERS = 2.0
CREATION_DATE  = 
ORIGINATOR     = 

OBJECT_NAME    = UNKNOWN
OBJECT_ID      = 
CENTER_NAME    = EARTH
REF_FRAME      = TEME
TIME_SYSTEM    = UTC
MEAN_ELEMENT_THEORY = SGP/SGP4

EPOCH          = 2026-01-09T06:29:02.256864
MEAN_MOTION    = 8.86967450
ECCENTRICITY   = .2934486
INCLINATION    = 63.4311
RA_OF_ASC_NODE = 18.4492
ARG_OF_PERICENTER = 319.5934
MEAN_ANOMALY   = 21.9689

EPHEMERIS_TYPE = 0
CLASSIFICATION_TYPE = U
NORAD_CAT_ID   = 89132
ELEMENT_SET_NO = 999
REV_AT_EPOCH   = 32755
BSTAR          = .11755E-1
MEAN_MOTION_DOT = .9101E-4
MEAN_MOTION_DDOT = 0

CCSDS_OMM_VERS = 2.0
CREATION_DATE  = 
ORIGINATOR     = 

OBJECT_NAME    = UNKNOWN
OBJECT_ID      = 
CENTER_NAME    = EARTH
REF_FRAME      = TEME
TIME_SYSTEM    = UTC
MEAN_ELEMENT_THEORY = SGP/SGP4

EPOCH          = 2026-01-09T13:06:29.527776
MEAN_MOTION    = 14.63416579
ECCENTRICITY   = .0092436
INCLINATION    = 98.2499
RA_OF_ASC_NODE = 303.2733
ARG_OF_PERICENTER = 329.3423
MEAN_ANOMALY   = 30.2397

EPHEMERIS_TYPE = 0
CLASSIFICATION_TYPE = U
NORAD_CAT_ID   = 89146
ELEMENT_SET_NO = 999
REV_AT_EPOCH   = 63294
BSTAR          = .10787E-2
MEAN_MOTION_DOT = .5886E-4
MEAN_MOTION_DDOT = 0

CCSDS_OMM_VERS = 2.0
CREATION_DATE  = 
ORIGINATOR     = 

OBJECT_NAME    = UNKNOWN
OBJECT_ID      = 
CENTER_NAME    = EARTH
REF_FRAME      = TEME
TIME_SYSTEM    = UTC
MEAN_ELEMENT_THEORY = SGP/SGP4

EPOCH          = 2026-01-09T13:45:13.061376
MEAN_MOTION    = 15.46687168
ECCENTRICITY   = .0028469
INCLINATION    = 97.6548
RA_OF_ASC_NODE = 31.6819
ARG_OF_PERICENTER = 329.2667
MEAN_ANOMALY   = 30.6913

EPHEMERIS_TYPE = 0
CLASSIFICATION_TYPE = U
NORAD_CAT_ID   = 89161
ELEMENT_SET_NO = 999
REV_AT_EPOCH   = 55287
BSTAR          = .2453E-2
MEAN_MOTION_DOT = .126111E-2
MEAN_MOTION_DDOT = 0

CCSDS_OMM_VERS = 2.0
CREATION_DATE  = 
ORIGINATOR     = 

OBJECT_NAME    = UNKNOWN
OBJECT_ID      = 
CENTER_NAME    = EARTH
REF_FRAME      = TEME
TIME_SYSTEM    = UTC
MEAN_ELEMENT_THEORY = SGP/SGP4

EPOCH          = 2026-01-06T12:20:29.803776
MEAN_MOTION    = 14.47266700
ECCENTRICITY   = .0288831
INCLINATION    = 82.0623
RA_OF_ASC_NODE = 198.6851
ARG_OF_PERICENTER = 205.0392
MEAN_ANOMALY   = 153.6564

EPHEMERIS_TYPE = 0
CLASSIFICATION_TYPE = U
NORAD_CAT_ID   = 89172
ELEMENT_SET_NO = 999
REV_AT_EPOCH   = 60547
BSTAR          = .25682E-2
MEAN_MOTION_DOT = .1595E-3
MEAN_MOTION_DDOT = 0

CCSDS_OMM_VERS = 2.0
CREATION_DATE  = 
ORIGINATOR     = 

OBJECT_NAME    = UNKNOWN
OBJECT_ID      = 
CENTER_NAME    = EARTH
REF_FRAME      = TEME
TIME_SYSTEM    = UTC
MEAN_ELEMENT_THEORY = SGP/SGP4

EPOCH          = 2026-01-07T08:56:13.949952
MEAN_MOTION    = 13.73731157
ECCENTRICITY   = .0033684
INCLINATION    = 82.9200
RA_OF_ASC_NODE = 250.1151
ARG_OF_PERICENTER = 71.8243
MEAN_ANOMALY   = 288.6575

EPHEMERIS_TYPE = 0
CLASSIFICATION_TYPE = U
NORAD_CAT_ID   = 89177
ELEMENT_SET_NO = 999
REV_AT_EPOCH   = 6634
BSTAR          = .91335E-4
MEAN_MOTION_DOT = .101E-5
MEAN_MOTION_DDOT = 0

CCSDS_OMM_VERS = 2.0
CREATION_DATE  = 
ORIGINATOR     = 

OBJECT_NAME    = UNKNOWN
OBJECT_ID      = 
CENTER_NAME    = EARTH
REF_FRAME      = TEME
TIME_SYSTEM    = UTC
MEAN_ELEMENT_THEORY = SGP/SGP4

EPOCH          = 2026-01-09T11:56:34.251360
MEAN_MOTION    = 13.81616323
ECCENTRICITY   = .0131185
INCLINATION    = 99.2195
RA_OF_ASC_NODE = 284.9419
ARG_OF_PERICENTER = 82.5633
MEAN_ANOMALY   = 279.0404

EPHEMERIS_TYPE = 0
CLASSIFICATION_TYPE = U
NORAD_CAT_ID   = 89183
ELEMENT_SET_NO = 999
REV_AT_EPOCH   = 61080
BSTAR          = .56261E-3
MEAN_MOTION_DOT = .599E-5
MEAN_MOTION_DDOT = 0

CCSDS_OMM_VERS = 2.0
CREATION_DATE  = 
ORIGINATOR     = 

OBJECT_NAME    = UNKNOWN
OBJECT_ID      = 
CENTER_NAME    = EARTH
REF_FRAME      = TEME
TIME_SYSTEM    = UTC
MEAN_ELEMENT_THEORY = SGP/SGP4

EPOCH          = 2026-01-09T08:50:52.409760
MEAN_MOTION    = 14.82668079
ECCENTRICITY   = .0011811
INCLINATION    = 98.3875
RA_OF_ASC_NODE = 240.4004
ARG_OF_PERICENTER = 36.9533
MEAN_ANOMALY   = 323.2490

EPHEMERIS_TYPE = 0
CLASSIFICATION_TYPE = U
NORAD_CAT_ID   = 89184
ELEMENT_SET_NO = 999
REV_AT_EPOCH   = 49626
BSTAR          = .36654E-2
MEAN_MOTION_DOT = .29646E-3
MEAN_MOTION_DDOT = 0

CCSDS_OMM_VERS = 2.0
CREATION_DATE  = 
ORIGINATOR     = 

OBJECT_NAME    = UNKNOWN
OBJECT_ID      = 
CENTER_NAME    = EARTH
REF_FRAME      = TEME
TIME_SYSTEM    = UTC
MEAN_ELEMENT_THEORY = SGP/SGP4

EPOCH          = 2026-01-09T09:10:55.761312
MEAN_MOTION    = 13.91623087
ECCENTRICITY   = .0228484
INCLINATION    = 98.7781
RA_OF_ASC_NODE = 246.0733
ARG_OF_PERICENTER = 50.7183
MEAN_ANOMALY   = 311.4002

EPHEMERIS_TYPE = 0
CLASSIFICATION_TYPE = U
NORAD_CAT_ID   = 89213
ELEMENT_SET_NO = 999
REV_AT_EPOCH   = 45651
BSTAR          = .42121E-3
MEAN_MOTION_DOT = .621E-5
MEAN_MOTION_DDOT = 0

CCSDS_OMM_VERS = 2.0
CREATION_DATE  = 
ORIGINATOR     = 

OBJECT_NAME    = UNKNOWN
OBJECT_ID      = 
CENTER_NAME    = EARTH
REF_FRAME      = TEME
TIME_SYSTEM    = UTC
MEAN_ELEMENT_THEORY = SGP/SGP4

EPOCH          = 2026-01-08T04:35:40.402176
MEAN_MOTION    = 9.25336330
ECCENTRICITY   = .2830125
INCLINATION    = 62.4796
RA_OF_ASC_NODE = 328.8417
ARG_OF_PERICENTER = 103.1244
MEAN_ANOMALY   = 289.7061

EPHEMERIS_TYPE = 0
CLASSIFICATION_TYPE = U
NORAD_CAT_ID   = 89251
ELEMENT_SET_NO = 999
REV_AT_EPOCH   = 37563
BSTAR          = .52935E-2
MEAN_MOTION_DOT = .9006E-4
MEAN_MOTION_DDOT = 0

CCSDS_OMM_VERS = 2.0
CREATION_DATE  = 
ORIGINATOR     = 

OBJECT_NAME    = UNKNOWN
OBJECT_ID      = 
CENTER_NAME    = EARTH
REF_FRAME      = TEME
TIME_SYSTEM    = UTC
MEAN_ELEMENT_THEORY = SGP/SGP4

EPOCH          = 2026-01-08T05:45:35.930016
MEAN_MOTION    = 14.43180462
ECCENTRICITY   = .0013981
INCLINATION    = 98.1556
RA_OF_ASC_NODE = 6.5189
ARG_OF_PERICENTER = 79.3594
MEAN_ANOMALY   = 280.9171

EPHEMERIS_TYPE = 0
CLASSIFICATION_TYPE = U
NORAD_CAT_ID   = 89261
ELEMENT_SET_NO = 999
REV_AT_EPOCH   = 53763
BSTAR          = .34856E-3
MEAN_MOTION_DOT = .1132E-4
MEAN_MOTION_DDOT = 0

CCSDS_OMM_VERS = 2.0
CREATION_DATE  = 
ORIGINATOR     = 

OBJECT_NAME    = UNKNOWN
OBJECT_ID      = 
CENTER_NAME    = EARTH
REF_FRAME      = TEME
TIME_SYSTEM    = UTC
MEAN_ELEMENT_THEORY = SGP/SGP4

EPOCH          = 2026-01-07T12:17:55.006080
MEAN_MOTION    = 9.05031645
ECCENTRICITY   = .2862546
INCLINATION    = 84.3018
RA_OF_ASC_NODE = 97.1354
ARG_OF_PERICENTER = 312.2832
MEAN_ANOMALY   = 35.9082

EPHEMERIS_TYPE = 0
CLASSIFICATION_TYPE = U
NORAD_CAT_ID   = 89304
ELEMENT_SET_NO = 999
REV_AT_EPOCH   = 44073
BSTAR          = .32744E-1
MEAN_MOTION_DOT = .31055E-3
MEAN_MOTION_DDOT = 0

