UNKNOWN                 
1 89101U          26004.03920154  .00000437  00000+0  14266-2 0  9999
2 89101 100.4669 305.0357 0147820  58.1774 303.3629 13.04020863557756
UNKNOWN                 
1 89132U          26009.27016501  .00009101  00000+0  11755-1 0  9992
2 89132  63.4311  18.4492 2934486 319.5934  21.9689  8.86967450327551
UNKNOWN                 
1 89146U          26009.54617509  .00005886  00000+0  10787-2 0  9993
2 89146  98.2499 303.2733 0092436 329.3423  30.2397 14.63416579632946
UNKNOWN                 
1 89161U          26009.57306784  .00126111  00000+0  24530-2 0  9999
2 89161  97.6548  31.6819 0028469 329.2667  30.6913 15.46687168552879
UNKNOWN                 
1 89172U          26006.51423384  .00015950  00000+0  25682-2 0  9995
2 89172  82.0623 198.6851 0288831 205.0392 153.6564 14.47266700605478
UNKNOWN                 
1 89177U          26007.37238368  .00000101  00000+0  91335-4 0  9993
2 89177  82.9200 250.1151 0033684  71.8243 288.6575 13.73731157 66347
UNKNOWN                 
1 89183U          26009.49761865  .00000599  00000+0  56261-3 0  9997
2 89183  99.2195 284.9419 0131185  82.5633 279.0404 13.81616323610804
UNKNOWN                 
1 89184U          26009.36866215  .00029646  00000+0  36654-2 0  9996
2 89184  98.3875 240.4004 0011811  36.9533 323.2490 14.82668079496268
UNKNOWN                 
1 89213U          26009.38258983  .00000621  00000+0  42121-3 0  9997
2 89213  98.7781 246.0733 0228484  50.7183 311.4002 13.91623087456514
UNKNOWN                 
1 89251U          26008.19143984  .00009006  00000+0  52935-2 0  9990
2 89251  62.4796 328.8417 2830125 103.1244 289.7061  9.25336330375631
UNKNOWN                 
1 89261U          26008.23999919  .00001132  00000+0  34856-3 0  9998
2 89261  98.1556   6.5189 0013981  79.3594 280.9171 14.43180462537635
UNKNOWN                 
1 89304U          26007.51244220  .00031055  00000+0  32744-1 0  9993
2 89304  84.3018  97.1354 2862546 312.2832  35.9082  9.05031645440731
